[{"OBJECT_NAME":"STARLINK-31817","OBJECT_ID":"2024-090B","EPOCH":"2026-03-09T07:13:07.753152","MEAN_MOTION":15.27580929,"ECCENTRICITY":3.814e-5,"INCLINATION":43.0005,"RA_OF_ASC_NODE":185.4383,"ARG_OF_PERICENTER":165.4918,"MEAN_ANOMALY":194.5945,"EPHEMERIS_TYPE":0,"CLASSIFICATION_TYPE":"U","NORAD_CAT_ID":59731,"ELEMENT_SET_NO":999,"REV_AT_EPOCH":10338,"BSTAR":1.0898339e-5,"MEAN_MOTION_DOT":3.8e-7,"MEAN_MOTION_DDOT":0},{"OBJECT_NAME":"FLOCK 4G-4","OBJECT_ID":"2025-009BC","EPOCH":"2026-03-09T18:04:48.344448","MEAN_MOTION":15.26803327,"ECCENTRICITY":0.00015979,"INCLINATION":97.3994,"RA_OF_ASC_NODE":150.7963,"ARG_OF_PERICENTER":343.4316,"MEAN_ANOMALY":16.687,"EPHEMERIS_TYPE":0,"CLASSIFICATION_TYPE":"U","NORAD_CAT_ID":62659,"ELEMENT_SET_NO":999,"REV_AT_EPOCH":12132,"BSTAR":0.00045294179,"MEAN_MOTION_DOT":0.00011866,"MEAN_MOTION_DDOT":0}]
